CZ-2C R/B               
1 54039U 22132E   25349.95296791  .00024339  00000+0  35971-3 0  9990
2 54039  97.2942 346.2135 0022624  46.5023 313.8107 15.55017309177336
GSLV R/B                
1 54149U 22138AN  25349.86554161  .00002050  00000+0  17854-3 0  9992
2 54149  87.3828 194.4274 0024187  95.3589 265.0403 14.96148661171390
XRISM                   
1 57800U 23137A   25349.67596707  .00003306  00000+0  19080-3 0  9998
2 57800  31.0016 106.5849 0007764 274.8716  85.1035 15.10367021125078
ACS3                    
1 59588U 24077B   25349.85910599  .00021831  00000+0  18631-1 0  9998
2 59588  97.2650 304.7688 0076985 330.8537  28.8339 13.85655809 82571
SZ-21 MODULE            
1 66515U 25246C   25349.73492091  .00020523  00000+0  22577-3 0  9997
2 66515  41.4776 357.7735 0006167 275.8419  84.1717 15.62644262  4917
