CCSDS_OMM_VERS = 2.0
CREATION_DATE  = 
ORIGINATOR     = 

OBJECT_NAME    = CZ-2C R/B
OBJECT_ID      = 2022-132E
CENTER_NAME    = EARTH
REF_FRAME      = TEME
TIME_SYSTEM    = UTC
MEAN_ELEMENT_THEORY = SGP/SGP4

EPOCH          = 2025-12-15T22:52:16.427424
MEAN_MOTION    = 15.55017309
ECCENTRICITY   = .00226241
INCLINATION    = 97.2942
RA_OF_ASC_NODE = 346.2135
ARG_OF_PERICENTER = 46.5023
MEAN_ANOMALY   = 313.8107

EPHEMERIS_TYPE = 0
CLASSIFICATION_TYPE = U
NORAD_CAT_ID   = 54039
ELEMENT_SET_NO = 999
REV_AT_EPOCH   = 17733
BSTAR          = .35971182E-3
MEAN_MOTION_DOT = .24339E-3
MEAN_MOTION_DDOT = 0

CCSDS_OMM_VERS = 2.0
CREATION_DATE  = 
ORIGINATOR     = 

OBJECT_NAME    = GSLV R/B
OBJECT_ID      = 2022-138AN
CENTER_NAME    = EARTH
REF_FRAME      = TEME
TIME_SYSTEM    = UTC
MEAN_ELEMENT_THEORY = SGP/SGP4

EPOCH          = 2025-12-15T20:46:22.795104
MEAN_MOTION    = 14.96148661
ECCENTRICITY   = .00241872
INCLINATION    = 87.3828
RA_OF_ASC_NODE = 194.4274
ARG_OF_PERICENTER = 95.3589
MEAN_ANOMALY   = 265.0403

EPHEMERIS_TYPE = 0
CLASSIFICATION_TYPE = U
NORAD_CAT_ID   = 54149
ELEMENT_SET_NO = 999
REV_AT_EPOCH   = 17139
BSTAR          = .17854428E-3
MEAN_MOTION_DOT = .205E-4
MEAN_MOTION_DDOT = 0

CCSDS_OMM_VERS = 2.0
CREATION_DATE  = 
ORIGINATOR     = 

OBJECT_NAME    = XRISM
OBJECT_ID      = 2023-137A
CENTER_NAME    = EARTH
REF_FRAME      = TEME
TIME_SYSTEM    = UTC
MEAN_ELEMENT_THEORY = SGP/SGP4

EPOCH          = 2025-12-15T16:13:23.554848
MEAN_MOTION    = 15.10367021
ECCENTRICITY   = .00077649
INCLINATION    = 31.0016
RA_OF_ASC_NODE = 106.5849
ARG_OF_PERICENTER = 274.8716
MEAN_ANOMALY   = 85.1035

EPHEMERIS_TYPE = 0
CLASSIFICATION_TYPE = U
NORAD_CAT_ID   = 57800
ELEMENT_SET_NO = 999
REV_AT_EPOCH   = 12507
BSTAR          = .19080261E-3
MEAN_MOTION_DOT = .3306E-4
MEAN_MOTION_DDOT = 0

CCSDS_OMM_VERS = 2.0
CREATION_DATE  = 
ORIGINATOR     = 

OBJECT_NAME    = ACS3
OBJECT_ID      = 2024-077B
CENTER_NAME    = EARTH
REF_FRAME      = TEME
TIME_SYSTEM    = UTC
MEAN_ELEMENT_THEORY = SGP/SGP4

EPOCH          = 2025-12-15T20:37:06.757536
MEAN_MOTION    = 13.85655809
ECCENTRICITY   = .00769852
INCLINATION    = 97.2650
RA_OF_ASC_NODE = 304.7688
ARG_OF_PERICENTER = 330.8537
MEAN_ANOMALY   = 28.8339

EPHEMERIS_TYPE = 0
CLASSIFICATION_TYPE = U
NORAD_CAT_ID   = 59588
ELEMENT_SET_NO = 999
REV_AT_EPOCH   = 8257
BSTAR          = .18631094E-1
MEAN_MOTION_DOT = .21831E-3
MEAN_MOTION_DDOT = 0

CCSDS_OMM_VERS = 2.0
CREATION_DATE  = 
ORIGINATOR     = 

OBJECT_NAME    = SZ-21 MODULE
OBJECT_ID      = 2025-246C
CENTER_NAME    = EARTH
REF_FRAME      = TEME
TIME_SYSTEM    = UTC
MEAN_ELEMENT_THEORY = SGP/SGP4

EPOCH          = 2025-12-15T17:38:17.166624
MEAN_MOTION    = 15.62644262
ECCENTRICITY   = .00061674
INCLINATION    = 41.4776
RA_OF_ASC_NODE = 357.7735
ARG_OF_PERICENTER = 275.8419
MEAN_ANOMALY   = 84.1717

EPHEMERIS_TYPE = 0
CLASSIFICATION_TYPE = U
NORAD_CAT_ID   = 66515
ELEMENT_SET_NO = 999
REV_AT_EPOCH   = 491
BSTAR          = .22577355E-3
MEAN_MOTION_DOT = .20523E-3
MEAN_MOTION_DDOT = 0

